OBJECT_NAME,OBJECT_ID,EPOCH,MEAN_MOTION,ECCENTRICITY,INCLINATION,RA_OF_ASC_NODE,ARG_OF_PERICENTER,MEAN_ANOMALY,EPHEMERIS_TYPE,CLASSIFICATION_TYPE,NORAD_CAT_ID,ELEMENT_SET_NO,REV_AT_EPOCH,BSTAR,MEAN_MOTION_DOT,MEAN_MOTION_DDOT
QIANFAN-208,2026-153H,2026-07-16T07:09:57.996288,14.25462130,.00083005,88.9922,358.9210,180.2392,179.8799,0,U,69807,999,170,.57018782E-4,.149E-5,0
QIANFAN-209,2026-153J,2026-07-16T05:31:52.493952,14.23086291,.00074157,88.9923,358.9294,176.8604,183.2635,0,U,69808,999,169,.71101345E-4,.175E-5,0
QIANFAN-210,2026-153K,2026-07-16T05:27:10.499904,14.24070168,.00077683,88.9921,358.9301,179.4292,180.6911,0,U,69809,999,169,.14700474E-4,.48E-6,0
QIANFAN-211,2026-153L,2026-07-16T03:45:27.762048,14.24384635,.00076237,88.9920,358.9366,179.0933,181.0274,0,U,69810,999,168,.14493569E-4,.48E-6,0
QIANFAN-212,2026-153M,2026-07-16T07:05:53.328768,14.26669394,.00081681,88.9922,358.9206,181.0930,179.0248,0,U,69811,999,170,.16433441E-4,.54E-6,0
QIANFAN-213,2026-153N,2026-07-16T05:24:50.598432,14.26673815,.00078485,88.9922,358.9287,181.1950,178.9226,0,U,69812,999,169,.50919391E-4,.138E-5,0
QIANFAN-214,2026-153P,2026-07-16T05:24:46.785600,14.26715042,.00078911,88.9922,358.9288,180.7847,179.3336,0,U,69813,999,169,.16115799E-4,.54E-6,0
QIANFAN-215,2026-153Q,2026-07-16T05:24:44.481312,14.26718425,.00079727,88.9921,358.9285,182.0739,178.0423,0,U,69814,999,169,.44793834E-4,.123E-5,0
QIANFAN-216,2026-153R,2026-07-16T05:24:43.919712,14.26719518,.00079378,88.9922,358.9286,181.8461,178.2705,0,U,69815,999,169,.52596813E-4,.142E-5,0
QIANFAN-217,2026-153S,2026-07-16T07:05:08.028384,14.26767990,.00076525,88.9921,358.9203,178.1875,181.9348,0,U,69816,999,170,.12649243E-4,.45E-6,0
QIANFAN-218,2026-153T,2026-07-16T07:04:38.160768,14.26810729,.00074281,88.9924,358.9207,175.3504,184.7760,0,U,69817,999,170,.43645527E-4,.12E-5,0
CZ-6A R/B,2026-153U,2026-07-16T06:49:30.202176,14.53448856,.00870523,89.0164,358.8487,83.3383,277.7725,0,U,69818,999,173,.29388906E-4,.148E-5,0
STARLINK-37520,2026-154A,2026-07-16T06:00:02.000160,15.80846387,.00016566,53.1590,287.6659,79.8476,168.5553,0,U,69819,999,283,.39796793E-3,.78468E-3,0
STARLINK-37553,2026-154B,2026-07-16T06:00:02.000160,15.80899814,.00006482,53.1587,287.6564,80.0963,172.6031,0,U,69820,999,283,-.89691319E-4,-.18384E-3,0
STARLINK-37561,2026-154C,2026-07-16T06:00:02.000160,15.80894820,.00014548,53.1589,287.6474,89.6100,167.3780,0,U,69821,999,283,-.1168567E-3,-.23724E-3,0
STARLINK-37521,2026-154D,2026-07-16T06:00:02.000160,15.80924122,.00011869,53.1589,287.6386,84.8846,176.3750,0,U,69822,999,283,-.52912029E-3,-.104127E-2,0
STARLINK-37628,2026-154E,2026-07-16T06:00:02.000160,15.80953229,.00012636,53.1591,287.6299,74.7697,190.7529,0,U,69823,999,283,-.79208117E-3,-.154838E-2,0
STARLINK-37695,2026-154F,2026-07-16T06:00:02.000160,15.83872563,.00006969,53.1591,287.5559,77.5941,223.8089,0,U,69824,999,283,-.10021257E-1,-.1978195E-1,0
STARLINK-37690,2026-154G,2026-07-16T06:00:02.000160,15.80857329,.00013121,53.1590,287.6124,85.2271,188.8518,0,U,69825,999,283,.1989841E-3,.38722E-3,0
STARLINK-37710,2026-154H,2026-07-16T06:00:02.000160,15.80870859,.00008988,53.1591,287.6041,68.3852,209.9746,0,U,69826,999,284,.25242128E-4,.4286E-4,0
STARLINK-38031,2026-154J,2026-07-16T06:00:02.000160,15.80791470,.00007742,53.1592,287.5943,57.2584,225.3775,0,U,69827,999,284,.26743198E-3,.52204E-3,0
STARLINK-38001,2026-154K,2026-07-16T06:00:02.000160,15.80847770,.00012908,53.1594,287.5859,97.5810,189.3206,0,U,69828,999,284,-.17344662E-4,-.4117E-4,0
STARLINK-37622,2026-154L,2026-07-16T06:00:02.000160,15.80891840,.0001212,53.1592,287.5771,64.5989,226.5623,0,U,69829,999,284,-.1635989E-3,-.32894E-3,0
STARLINK-37621,2026-154M,2026-07-16T06:00:02.000160,15.80987465,.00008491,53.1592,287.5685,90.5869,204.8079,0,U,69830,999,284,-.97368138E-3,-.189708E-2,0
STARLINK-37918,2026-154N,2026-07-16T06:00:02.000160,15.81105955,.00012965,53.1594,287.5595,88.0421,211.5629,0,U,69831,999,284,-.18513774E-2,-.355315E-2,0
STARLINK-37887,2026-154P,2026-07-16T06:00:02.000160,15.81290295,.00009222,53.1594,287.5506,78.6780,225.1102,0,U,69832,999,284,-.39826092E-2,-.737151E-2,0
STARLINK-37624,2026-154Q,2026-07-16T06:00:02.000160,15.81404746,.00012326,53.1592,287.5420,104.0369,203.9520,0,U,69833,999,284,-.42543529E-2,-.787142E-2,0
STARLINK-37769,2026-154R,2026-07-16T06:00:02.000160,15.81542739,.00013104,53.1592,287.5332,91.9476,220.2277,0,U,69834,999,284,-.51094008E-2,-.934999E-2,0
STARLINK-37247,2026-154S,2026-07-16T06:00:02.000160,15.81724757,.0001068,53.1594,287.5246,72.6822,243.6548,0,U,69835,999,294,-.67392453E-2,-.1227464E-1,0
STARLINK-37569,2026-154T,2026-07-16T06:00:02.000160,15.81914029,.00011261,53.1594,287.5161,97.3407,223.0959,0,U,69836,999,284,-.70677445E-2,-.1290296E-1,0
