QIANFAN-208             
1 69807U 26153H   26197.29858792  .00000149  00000+0  57019-4 0  9991
2 69807  88.9922 358.9210 0008300 180.2392 179.8799 14.25462130  1700
QIANFAN-209             
1 69808U 26153J   26197.23046868  .00000175  00000+0  71101-4 0  9996
2 69808  88.9923 358.9294 0007415 176.8604 183.2635 14.23086291  1691
QIANFAN-210             
1 69809U 26153K   26197.22720486  .00000048  00000+0  14700-4 0  9992
2 69809  88.9921 358.9301 0007768 179.4292 180.6911 14.24070168  1697
QIANFAN-211             
1 69810U 26153L   26197.15657132  .00000048  00000+0  14494-4 0  9993
2 69810  88.9920 358.9366 0007623 179.0933 181.0274 14.24384635  1680
QIANFAN-212             
1 69811U 26153M   26197.29575612  .00000054  00000+0  16433-4 0  9993
2 69811  88.9922 358.9206 0008168 181.0930 179.0248 14.26669394  1702
QIANFAN-213             
1 69812U 26153N   26197.22558563  .00000138  00000+0  50919-4 0  9993
2 69812  88.9922 358.9287 0007848 181.1950 178.9226 14.26673815  1694
QIANFAN-214             
1 69813U 26153P   26197.22554150  .00000054  00000+0  16116-4 0  9990
2 69813  88.9922 358.9288 0007891 180.7847 179.3336 14.26715042  1690
QIANFAN-215             
1 69814U 26153Q   26197.22551483  .00000123  00000+0  44794-4 0  9997
2 69814  88.9921 358.9285 0007972 182.0739 178.0423 14.26718425  1693
QIANFAN-216             
1 69815U 26153R   26197.22550833  .00000142  00000+0  52597-4 0  9997
2 69815  88.9922 358.9286 0007937 181.8461 178.2705 14.26719518  1695
QIANFAN-217             
1 69816U 26153S   26197.29523181  .00000045  00000+0  12649-4 0  9997
2 69816  88.9921 358.9203 0007652 178.1875 181.9348 14.26767990  1709
QIANFAN-218             
1 69817U 26153T   26197.29488612  .00000120  00000+0  43646-4 0  9992
2 69817  88.9924 358.9207 0007428 175.3504 184.7760 14.26810729  1704
CZ-6A R/B               
1 69818U 26153U   26197.28437734  .00000148  00000+0  29389-4 0  9999
2 69818  89.0164 358.8487 0087052  83.3383 277.7725 14.53448856  1731
STARLINK-37520          
1 69819U 26154A   26197.25002315  .00078468  00000+0  39797-3 0  9994
2 69819  53.1590 287.6659 0001656  79.8476 168.5553 15.80846387  2836
STARLINK-37553          
1 69820U 26154B   26197.25002315 -.00018384  00000+0 -89691-4 0  9998
2 69820  53.1587 287.6564 0000648  80.0963 172.6031 15.80899814  2834
STARLINK-37561          
1 69821U 26154C   26197.25002315 -.00023724  00000+0 -11686-3 0  9991
2 69821  53.1589 287.6474 0001454  89.6100 167.3780 15.80894820  2835
STARLINK-37521          
1 69822U 26154D   26197.25002315 -.00104127  00000+0 -52912-3 0  9996
2 69822  53.1589 287.6386 0001186  84.8846 176.3750 15.80924122  2830
STARLINK-37628          
1 69823U 26154E   26197.25002315 -.00154838  00000+0 -79208-3 0  9998
2 69823  53.1591 287.6299 0001263  74.7697 190.7529 15.80953229  2839
STARLINK-37695          
1 69824U 26154F   26197.25002315 -.01978195  00000+0 -10021-1 0  9996
2 69824  53.1591 287.5559 0000696  77.5941 223.8089 15.83872563  2833
STARLINK-37690          
1 69825U 26154G   26197.25002315  .00038722  00000+0  19898-3 0  9990
2 69825  53.1590 287.6124 0001312  85.2271 188.8518 15.80857329  2837
STARLINK-37710          
1 69826U 26154H   26197.25002315  .00004286  00000+0  25242-4 0  9990
2 69826  53.1591 287.6041 0000898  68.3852 209.9746 15.80870859  2844
STARLINK-38031          
1 69827U 26154J   26197.25002315  .00052204  00000+0  26743-3 0  9990
2 69827  53.1592 287.5943 0000774  57.2584 225.3775 15.80791470  2843
STARLINK-38001          
1 69828U 26154K   26197.25002315 -.00004117  00000+0 -17345-4 0  9992
2 69828  53.1594 287.5859 0001290  97.5810 189.3206 15.80847770  2848
STARLINK-37622          
1 69829U 26154L   26197.25002315 -.00032894  00000+0 -16360-3 0  9991
2 69829  53.1592 287.5771 0001212  64.5989 226.5623 15.80891840  2849
STARLINK-37621          
1 69830U 26154M   26197.25002315 -.00189708  00000+0 -97368-3 0  9997
2 69830  53.1592 287.5685 0000849  90.5869 204.8079 15.80987465  2849
STARLINK-37918          
1 69831U 26154N   26197.25002315 -.00355315  00000+0 -18514-2 0  9992
2 69831  53.1594 287.5595 0001296  88.0421 211.5629 15.81105955  2848
STARLINK-37887          
1 69832U 26154P   26197.25002315 -.00737151  00000+0 -39826-2 0  9994
2 69832  53.1594 287.5506 0000922  78.6780 225.1102 15.81290295  2848
STARLINK-37624          
1 69833U 26154Q   26197.25002315 -.00787142  00000+0 -42544-2 0  9991
2 69833  53.1592 287.5420 0001232 104.0369 203.9520 15.81404746  2840
STARLINK-37769          
1 69834U 26154R   26197.25002315 -.00934999  00000+0 -51094-2 0  9996
2 69834  53.1592 287.5332 0001310  91.9476 220.2277 15.81542739  2849
STARLINK-37247          
1 69835U 26154S   26197.25002315 -.01227464  00000+0 -67392-2 0  9998
2 69835  53.1594 287.5246 0001068  72.6822 243.6548 15.81724757  2940
STARLINK-37569          
1 69836U 26154T   26197.25002315 -.01290296  00000+0 -70677-2 0  9992
2 69836  53.1594 287.5161 0001126  97.3407 223.0959 15.81914029  2845
